[{"OBJECT_NAME":"ONEWEB-0296","OBJECT_ID":"2021-075L","EPOCH":"2025-12-30T07:01:01.219872","MEAN_MOTION":13.1244273,"ECCENTRICITY":0.0001638,"INCLINATION":87.8927,"RA_OF_ASC_NODE":24.2033,"ARG_OF_PERICENTER":105.452,"MEAN_ANOMALY":254.6789,"EPHEMERIS_TYPE":0,"CLASSIFICATION_TYPE":"U","NORAD_CAT_ID":49085,"ELEMENT_SET_NO":999,"REV_AT_EPOCH":21242,"BSTAR":0.00063058349,"MEAN_MOTION_DOT":2.4e-6,"MEAN_MOTION_DDOT":0},{"OBJECT_NAME":"ONEWEB-0297","OBJECT_ID":"2021-075M","EPOCH":"2025-12-30T07:44:54.873312","MEAN_MOTION":13.12443084,"ECCENTRICITY":0.00017798,"INCLINATION":87.892,"RA_OF_ASC_NODE":24.2283,"ARG_OF_PERICENTER":96.2928,"MEAN_ANOMALY":263.8403,"EPHEMERIS_TYPE":0,"CLASSIFICATION_TYPE":"U","NORAD_CAT_ID":49086,"ELEMENT_SET_NO":999,"REV_AT_EPOCH":21303,"BSTAR":-0.0010680795,"MEAN_MOTION_DOT":-3.72e-6,"MEAN_MOTION_DDOT":0},{"OBJECT_NAME":"ONEWEB-0298","OBJECT_ID":"2021-075N","EPOCH":"2025-12-30T03:47:47.945184","MEAN_MOTION":13.17646934,"ECCENTRICITY":0.00019375,"INCLINATION":87.9091,"RA_OF_ASC_NODE":39.4758,"ARG_OF_PERICENTER":97.4648,"MEAN_ANOMALY":262.6704,"EPHEMERIS_TYPE":0,"CLASSIFICATION_TYPE":"U","NORAD_CAT_ID":49087,"ELEMENT_SET_NO":999,"REV_AT_EPOCH":21136,"BSTAR":2.901111e-5,"MEAN_MOTION_DOT":2.4e-7,"MEAN_MOTION_DDOT":0},{"OBJECT_NAME":"ONEWEB-0299","OBJECT_ID":"2021-075P","EPOCH":"2025-12-30T03:50:02.505408","MEAN_MOTION":13.17648383,"ECCENTRICITY":0.0001834,"INCLINATION":87.9105,"RA_OF_ASC_NODE":39.439,"ARG_OF_PERICENTER":102.8615,"MEAN_ANOMALY":257.2722,"EPHEMERIS_TYPE":0,"CLASSIFICATION_TYPE":"U","NORAD_CAT_ID":49088,"ELEMENT_SET_NO":999,"REV_AT_EPOCH":21134,"BSTAR":0.00012970444,"MEAN_MOTION_DOT":6.3e-7,"MEAN_MOTION_DDOT":0},{"OBJECT_NAME":"ONEWEB-0300","OBJECT_ID":"2021-075Q","EPOCH":"2025-12-30T07:33:57.053952","MEAN_MOTION":13.12443608,"ECCENTRICITY":0.0002053,"INCLINATION":87.8926,"RA_OF_ASC_NODE":24.191,"ARG_OF_PERICENTER":89.5965,"MEAN_ANOMALY":270.5398,"EPHEMERIS_TYPE":0,"CLASSIFICATION_TYPE":"U","NORAD_CAT_ID":49089,"ELEMENT_SET_NO":999,"REV_AT_EPOCH":21305,"BSTAR":-0.00092388826,"MEAN_MOTION_DOT":-3.2e-6,"MEAN_MOTION_DDOT":0},{"OBJECT_NAME":"ONEWEB-0301","OBJECT_ID":"2021-075R","EPOCH":"2025-12-30T07:10:46.673184","MEAN_MOTION":13.12443069,"ECCENTRICITY":0.00020823,"INCLINATION":87.8925,"RA_OF_ASC_NODE":24.1959,"ARG_OF_PERICENTER":88.1686,"MEAN_ANOMALY":271.9681,"EPHEMERIS_TYPE":0,"CLASSIFICATION_TYPE":"U","NORAD_CAT_ID":49090,"ELEMENT_SET_NO":999,"REV_AT_EPOCH":21241,"BSTAR":0.00030638733,"MEAN_MOTION_DOT":1.23e-6,"MEAN_MOTION_DDOT":0},{"OBJECT_NAME":"ONEWEB-0302","OBJECT_ID":"2021-075S","EPOCH":"2025-12-30T03:11:40.842240","MEAN_MOTION":13.12441914,"ECCENTRICITY":0.00014354,"INCLINATION":87.8926,"RA_OF_ASC_NODE":24.2373,"ARG_OF_PERICENTER":99.5721,"MEAN_ANOMALY":260.557,"EPHEMERIS_TYPE":0,"CLASSIFICATION_TYPE":"U","NORAD_CAT_ID":49091,"ELEMENT_SET_NO":999,"REV_AT_EPOCH":21237,"BSTAR":0.0013115159,"MEAN_MOTION_DOT":4.85e-6,"MEAN_MOTION_DDOT":0},{"OBJECT_NAME":"ONEWEB-0304","OBJECT_ID":"2021-075T","EPOCH":"2025-12-30T03:13:33.734208","MEAN_MOTION":13.17648706,"ECCENTRICITY":0.00018016,"INCLINATION":87.9104,"RA_OF_ASC_NODE":39.4745,"ARG_OF_PERICENTER":101.4431,"MEAN_ANOMALY":258.6903,"EPHEMERIS_TYPE":0,"CLASSIFICATION_TYPE":"U","NORAD_CAT_ID":49092,"ELEMENT_SET_NO":999,"REV_AT_EPOCH":21131,"BSTAR":-0.00073118835,"MEAN_MOTION_DOT":-2.71e-6,"MEAN_MOTION_DDOT":0},{"OBJECT_NAME":"ONEWEB-0305","OBJECT_ID":"2021-075U","EPOCH":"2025-12-30T03:03:52.328736","MEAN_MOTION":13.17648809,"ECCENTRICITY":0.00019295,"INCLINATION":87.9103,"RA_OF_ASC_NODE":39.4532,"ARG_OF_PERICENTER":109.9741,"MEAN_ANOMALY":250.1599,"EPHEMERIS_TYPE":0,"CLASSIFICATION_TYPE":"U","NORAD_CAT_ID":49093,"ELEMENT_SET_NO":999,"REV_AT_EPOCH":21134,"BSTAR":0.00021985919,"MEAN_MOTION_DOT":9.8e-7,"MEAN_MOTION_DDOT":0},{"OBJECT_NAME":"ONEWEB-0308","OBJECT_ID":"2021-075V","EPOCH":"2025-12-30T03:01:54.751296","MEAN_MOTION":13.12442773,"ECCENTRICITY":0.00017511,"INCLINATION":87.8928,"RA_OF_ASC_NODE":24.2315,"ARG_OF_PERICENTER":92.2703,"MEAN_ANOMALY":267.8626,"EPHEMERIS_TYPE":0,"CLASSIFICATION_TYPE":"U","NORAD_CAT_ID":49094,"ELEMENT_SET_NO":999,"REV_AT_EPOCH":21238,"BSTAR":0.0012354193,"MEAN_MOTION_DOT":4.57e-6,"MEAN_MOTION_DDOT":0},{"OBJECT_NAME":"ONEWEB-0309","OBJECT_ID":"2021-075W","EPOCH":"2025-12-30T03:08:43.888128","MEAN_MOTION":13.17649327,"ECCENTRICITY":0.00013824,"INCLINATION":87.9101,"RA_OF_ASC_NODE":39.4682,"ARG_OF_PERICENTER":101.4653,"MEAN_ANOMALY":258.6633,"EPHEMERIS_TYPE":0,"CLASSIFICATION_TYPE":"U","NORAD_CAT_ID":49095,"ELEMENT_SET_NO":999,"REV_AT_EPOCH":21131,"BSTAR":0.00015091387,"MEAN_MOTION_DOT":7.1e-7,"MEAN_MOTION_DDOT":0},{"OBJECT_NAME":"ONEWEB-0310","OBJECT_ID":"2021-075X","EPOCH":"2025-12-30T03:23:53.866752","MEAN_MOTION":13.12442968,"ECCENTRICITY":0.00017007,"INCLINATION":87.8918,"RA_OF_ASC_NODE":24.264,"ARG_OF_PERICENTER":92.3253,"MEAN_ANOMALY":267.8071,"EPHEMERIS_TYPE":0,"CLASSIFICATION_TYPE":"U","NORAD_CAT_ID":49096,"ELEMENT_SET_NO":999,"REV_AT_EPOCH":21301,"BSTAR":0.00065481277,"MEAN_MOTION_DOT":2.48e-6,"MEAN_MOTION_DDOT":0},{"OBJECT_NAME":"ONEWEB-0311","OBJECT_ID":"2021-075Y","EPOCH":"2025-12-30T03:18:25.647840","MEAN_MOTION":13.17650704,"ECCENTRICITY":0.00019997,"INCLINATION":87.91,"RA_OF_ASC_NODE":39.4626,"ARG_OF_PERICENTER":106.3461,"MEAN_ANOMALY":253.7891,"EPHEMERIS_TYPE":0,"CLASSIFICATION_TYPE":"U","NORAD_CAT_ID":49097,"ELEMENT_SET_NO":999,"REV_AT_EPOCH":21136,"BSTAR":-7.1592395e-5,"MEAN_MOTION_DOT":-1.5e-7,"MEAN_MOTION_DDOT":0},{"OBJECT_NAME":"ONEWEB-0312","OBJECT_ID":"2021-075Z","EPOCH":"2025-12-30T03:40:19.410816","MEAN_MOTION":13.17648935,"ECCENTRICITY":0.00016575,"INCLINATION":87.9093,"RA_OF_ASC_NODE":39.4838,"ARG_OF_PERICENTER":109.0804,"MEAN_ANOMALY":251.0507,"EPHEMERIS_TYPE":0,"CLASSIFICATION_TYPE":"U","NORAD_CAT_ID":49098,"ELEMENT_SET_NO":999,"REV_AT_EPOCH":21134,"BSTAR":-1.341552e-5,"MEAN_MOTION_DOT":8.0e-8,"MEAN_MOTION_DDOT":0},{"OBJECT_NAME":"ONEWEB-0313","OBJECT_ID":"2021-075AA","EPOCH":"2025-12-30T03:47:25.061280","MEAN_MOTION":13.17648528,"ECCENTRICITY":0.00018104,"INCLINATION":87.909,"RA_OF_ASC_NODE":39.4901,"ARG_OF_PERICENTER":100.2924,"MEAN_ANOMALY":259.8412,"EPHEMERIS_TYPE":0,"CLASSIFICATION_TYPE":"U","NORAD_CAT_ID":49099,"ELEMENT_SET_NO":999,"REV_AT_EPOCH":21133,"BSTAR":6.0152649e-5,"MEAN_MOTION_DOT":3.6e-7,"MEAN_MOTION_DDOT":0},{"OBJECT_NAME":"ONEWEB-0314","OBJECT_ID":"2021-075AB","EPOCH":"2025-12-30T02:59:00.784032","MEAN_MOTION":13.17649751,"ECCENTRICITY":0.00017233,"INCLINATION":87.91,"RA_OF_ASC_NODE":39.451,"ARG_OF_PERICENTER":110.9746,"MEAN_ANOMALY":249.157,"EPHEMERIS_TYPE":0,"CLASSIFICATION_TYPE":"U","NORAD_CAT_ID":49100,"ELEMENT_SET_NO":999,"REV_AT_EPOCH":21130,"BSTAR":2.8205316e-5,"MEAN_MOTION_DOT":2.4e-7,"MEAN_MOTION_DDOT":0},{"OBJECT_NAME":"ONEWEB-0315","OBJECT_ID":"2021-075AC","EPOCH":"2025-12-30T02:44:50.780832","MEAN_MOTION":13.12442825,"ECCENTRICITY":0.00020646,"INCLINATION":87.893,"RA_OF_ASC_NODE":24.2192,"ARG_OF_PERICENTER":100.0332,"MEAN_ANOMALY":260.103,"EPHEMERIS_TYPE":0,"CLASSIFICATION_TYPE":"U","NORAD_CAT_ID":49101,"ELEMENT_SET_NO":999,"REV_AT_EPOCH":21299,"BSTAR":0.00050120828,"MEAN_MOTION_DOT":1.93e-6,"MEAN_MOTION_DDOT":0}]
