ONEWEB-0296             
1 49085U 21075L   25364.29237523  .00000240  00000+0  63058-3 0  9994
2 49085  87.8927  24.2033 0001638 105.4520 254.6789 13.12442730212427
ONEWEB-0297             
1 49086U 21075M   25364.32285733 -.00000372  00000+0 -10681-2 0  9996
2 49086  87.8920  24.2283 0001779  96.2928 263.8403 13.12443084213039
ONEWEB-0298             
1 49087U 21075N   25364.15819381  .00000024  00000+0  29011-4 0  9991
2 49087  87.9091  39.4758 0001937  97.4648 262.6704 13.17646934211362
ONEWEB-0299             
1 49088U 21075P   25364.15975122  .00000063  00000+0  12970-3 0  9996
2 49088  87.9105  39.4390 0001834 102.8615 257.2722 13.17648383211340
ONEWEB-0300             
1 49089U 21075Q   25364.31524368 -.00000320  00000+0 -92389-3 0  9997
2 49089  87.8926  24.1910 0002053  89.5965 270.5398 13.12443608213058
ONEWEB-0301             
1 49090U 21075R   25364.29915131  .00000123  00000+0  30639-3 0  9997
2 49090  87.8925  24.1959 0002082  88.1686 271.9681 13.12443069212419
ONEWEB-0302             
1 49091U 21075S   25364.13311160  .00000485  00000+0  13115-2 0  9993
2 49091  87.8926  24.2373 0001435  99.5721 260.5570 13.12441914212372
ONEWEB-0304             
1 49092U 21075T   25364.13441822 -.00000271  00000+0 -73119-3 0  9999
2 49092  87.9104  39.4745 0001801 101.4431 258.6903 13.17648706211315
ONEWEB-0305             
1 49093U 21075U   25364.12768899  .00000098  00000+0  21986-3 0  9995
2 49093  87.9103  39.4532 0001929 109.9741 250.1599 13.17648809211342
ONEWEB-0308             
1 49094U 21075V   25364.12632814  .00000457  00000+0  12354-2 0  9990
2 49094  87.8928  24.2315 0001751  92.2703 267.8626 13.12442773212381
ONEWEB-0309             
1 49095U 21075W   25364.13106352  .00000071  00000+0  15091-3 0  9999
2 49095  87.9101  39.4682 0001382 101.4653 258.6633 13.17649327211315
ONEWEB-0310             
1 49096U 21075X   25364.14159568  .00000248  00000+0  65481-3 0  9992
2 49096  87.8918  24.2640 0001700  92.3253 267.8071 13.12442968213019
ONEWEB-0311             
1 49097U 21075Y   25364.13779685 -.00000015  00000+0 -71592-4 0  9995
2 49097  87.9100  39.4626 0001999 106.3461 253.7891 13.17650704211367
ONEWEB-0312             
1 49098U 21075Z   25364.15300244  .00000008  00000+0 -13416-4 0  9991
2 49098  87.9093  39.4838 0001657 109.0804 251.0507 13.17648935211342
ONEWEB-0313             
1 49099U 21075AA  25364.15792895  .00000036  00000+0  60153-4 0  9999
2 49099  87.9090  39.4901 0001810 100.2924 259.8412 13.17648528211336
ONEWEB-0314             
1 49100U 21075AB  25364.12431463  .00000024  00000+0  28205-4 0  9999
2 49100  87.9100  39.4510 0001723 110.9746 249.1570 13.17649751211303
ONEWEB-0315             
1 49101U 21075AC  25364.11447663  .00000193  00000+0  50121-3 0  9996
2 49101  87.8930  24.2192 0002064 100.0332 260.1030 13.12442825212990
